LEMUR-2-URAMCHANSOL
1 43183U 18014D   24002.66781027  .00010503  00000-0  65073-3 0  9991
2 43183  97.6016 268.1364 0012945 184.0559 176.0567 15.09883896323673
